NORAD_CAT_ID,OBJECT_NAME,OBJECT_TYPE,EPOCH,MEAN_MOTION,ECCENTRICITY,INCLINATION,RA_OF_ASC_NODE,ARG_OF_PERICENTER,MEAN_ANOMALY,BSTAR,MEAN_MOTION_DOT,MEAN_MOTION_DDOT,TLE_LINE0,TLE_LINE1,TLE_LINE2,SEMIMAJOR_AXIS,PERIOD,APOGEE,PERIGEE,DECAYED
49441.0,STARLINK-3128,PAYLOAD,2023-11-02 11:07:03,15.08833676,0.0001433,53.2181,101.8498,86.9368,273.1789,4.8776e-05,4.88e-06,0.0,0 STARLINK-3128,1 49441U 21104AK  23306.46324009  .00000488  00000-0  48776-4 0  9998,2 49441  53.2181 101.8498 0001433  86.9368 273.1789 15.08833676110439,6917.9,95.438,540.756,538.773,0.0
49441.0,STARLINK-3128,PAYLOAD,2023-11-02 14:17:50,15.08836107,0.000157,53.2179,101.2527,92.1754,267.9418,2.452e-05,1.02e-06,0.0,0 STARLINK-3128,1 49441U 21104AK  23306.59571908  .00000102  00000-0  24520-4 0  9998,2 49441  53.2179 101.2527 0001570  92.1754 267.9418 15.08836107109376,6917.892,95.438,540.843,538.671,0.0
49441.0,STARLINK-3128,PAYLOAD,2023-11-02 17:28:36,15.0883987,0.0001404,53.2181,100.6604,92.8818,267.2335,7.4345e-05,8.95e-06,0.0,0 STARLINK-3128,1 49441U 21104AK  23306.72819576  .00000895  00000-0  74345-4 0  9998,2 49441  53.2181 100.6604 0001404  92.8818 267.2335 15.08839870109395,6917.881,95.438,540.717,538.775,0.0
49441.0,STARLINK-3128,PAYLOAD,2023-11-03 14:08:37,15.08840307,0.0001355,53.218,96.7934,91.4399,268.6748,-2.4391e-05,-6.76e-06,0.0,0 STARLINK-3128,1 49441U 21104AK  23307.58931943 -.00000676  00000-0 -24391-4 0  9991,2 49441  53.2180  96.7934 0001355  91.4399 268.6748 15.08840307109524,6917.879,95.438,540.682,538.807,0.0
49441.0,STARLINK-3128,PAYLOAD,2023-11-03 20:30:09,15.08846899,0.0001304,53.2179,95.6044,92.781,267.3331,5.8464e-05,6.43e-06,0.0,0 STARLINK-3128,1 49441U 21104AK  23307.85427292  .00000643  00000-0  58464-4 0  9998,2 49441  53.2179  95.6044 0001304  92.7810 267.3331 15.08846899110649,6917.859,95.437,540.626,538.822,0.0
49441.0,STARLINK-3128,PAYLOAD,2023-11-03 22:05:32,15.08849109,0.0001313,53.2175,95.3076,89.699,270.4152,6.3902e-05,7.29e-06,0.0,0 STARLINK-3128,1 49441U 21104AK  23307.92051149  .00000729  00000-0  63902-4 0  9998,2 49441  53.2175  95.3076 0001313  89.6990 270.4152 15.08849109109574,6917.853,95.437,540.626,538.809,0.0
49441.0,STARLINK-3128,PAYLOAD,2023-11-04 02:51:42,15.0883094,0.00014,53.2173,94.414,82.7151,277.4,-8.6827e-05,-1.669e-05,0.0,0 STARLINK-3128,1 49441U 21104AK  23308.11924740 -.00001669  00000-0 -86827-4 0  9993,2 49441  53.2173  94.4140 0001400  82.7151 277.4000 15.08830940110680,6917.908,95.438,540.742,538.805,0.0
49441.0,STARLINK-3128,PAYLOAD,2023-11-04 13:59:24,15.08834972,0.0001373,53.2173,92.333,88.0181,272.0968,0.00011474,1.538e-05,0.0,0 STARLINK-3128,1 49441U 21104AK  23308.58292369  .00001538  00000-0  11474-3 0  9997,2 49441  53.2173  92.3330 0001373  88.0181 272.0968 15.08834972109679,6917.896,95.438,540.711,538.811,0.0
49441.0,STARLINK-3128,PAYLOAD,2023-11-04 17:10:10,15.08839637,0.0001386,53.2175,91.7382,84.3944,275.7207,8.2128e-05,1.019e-05,0.0,0 STARLINK-3128,1 49441U 21104AK  23308.71540177  .00001019  00000-0  82128-4 0  9994,2 49441  53.2175  91.7382 0001386  84.3944 275.7207 15.08839637110773,6917.881,95.438,540.705,538.788,0.0
49441.0,STARLINK-3128,PAYLOAD,2023-11-05 13:50:10,15.08849969,0.0001358,53.2166,87.8728,87.6854,272.4294,0.00031559,4.74e-05,0.0,0 STARLINK-3128,1 49441U 21104AK  23309.57651580  .00004740  00000-0  31559-3 0  9995,2 49441  53.2166  87.8728 0001358  87.6854 272.4294 15.08849969109821,6917.85,95.437,540.654,538.775,0.0
49441.0,STARLINK-3128,PAYLOAD,2023-11-05 17:00:56,15.08861869,0.0001415,53.2163,87.2781,86.7506,273.3648,0.00053708,8.275e-05,0.0,0 STARLINK-3128,1 49441U 21104AK  23309.70899204  .00008275  00000-0  53708-3 0  9994,2 49441  53.2163  87.2781 0001415  86.7506 273.3648 15.08861869110928,6917.814,95.436,540.657,538.7,0.0
49441.0,STARLINK-3128,PAYLOAD,2023-11-06 08:54:47,15.0885723,0.0001799,53.2156,84.306,74.7821,285.337,0.00025941,3.845e-05,0.0,0 STARLINK-3128,1 49441U 21104AK  23310.37138749  .00003845  00000-0  25941-3 0  9995,2 49441  53.2156  84.3060 0001799  74.7821 285.3370 15.08857230111024,6917.828,95.436,540.937,538.448,0.0
49441.0,STARLINK-3128,PAYLOAD,2023-11-06 13:40:59,15.08806372,0.000183,53.2159,83.4136,50.0511,310.0642,-0.00062564,-0.00010222,0.0,0 STARLINK-3128,1 49441U 21104AK  23310.57012934 -.00010222  00000-0 -62564-3 0  9995,2 49441  53.2159  83.4136 0001830  50.0511 310.0642 15.08806372109970,6917.983,95.44,541.114,538.582,0.0
49441.0,STARLINK-3128,PAYLOAD,2023-11-06 15:16:22,15.08805133,0.000119,53.2159,83.1143,87.0804,273.0324,-0.00070194,-0.00011431,0.0,0 STARLINK-3128,1 49441U 21104AK  23310.63636932 -.00011431  00000-0 -70194-3 0  9993,2 49441  53.2159  83.1143 0001190  87.0804 273.0324 15.08805133111061,6917.987,95.44,540.675,539.029,0.0
49441.0,STARLINK-3128,PAYLOAD,2023-11-07 02:24:04,15.08811542,0.0001222,53.2175,81.0346,91.1646,268.9486,-0.00039197,-6.516e-05,0.0,0 STARLINK-3128,1 49441U 21104AK  23311.10005475 -.00006516  00000-0 -39197-3 0  9994,2 49441  53.2175  81.0346 0001222  91.1646 268.9486 15.08811542111138,6917.967,95.439,540.678,538.987,0.0
49441.0,STARLINK-3128,PAYLOAD,2023-11-07 11:56:23,15.08827257,0.0001482,53.2153,79.2501,86.1416,273.9745,5.2982e-05,5.55e-06,0.0,0 STARLINK-3128,1 49441U 21104AK  23311.49749665  .00000555  00000-0  52982-4 0  9995,2 49441  53.2153  79.2501 0001482  86.1416 273.9745 15.08827257111193,6917.919,95.438,540.81,538.759,0.0
49441.0,STARLINK-3128,PAYLOAD,2023-11-07 15:07:10,15.08822999,0.0001178,53.2162,78.6562,81.2488,278.8637,0.00056503,8.712e-05,0.0,0 STARLINK-3128,1 49441U 21104AK  23311.62998073  .00008712  00000-0  56503-3 0  9994,2 49441  53.2162  78.6562 0001178  81.2488 278.8637 15.08822999110135,6917.932,95.439,540.612,538.982,0.0
49441.0,STARLINK-3128,PAYLOAD,2023-11-08 11:47:10,15.08857698,0.0001319,53.2167,74.79,78.4231,281.6909,0.00094964,0.00014865,0.0,0 STARLINK-3128,1 49441U 21104AK  23312.49109923  .00014865  00000-0  94964-3 0  9997,2 49441  53.2167  74.7900 0001319  78.4231 281.6909 15.08857698111346,6917.826,95.436,540.604,538.779,0.0
49441.0,STARLINK-3128,PAYLOAD,2023-11-08 13:22:33,15.08865554,0.0001357,53.2162,74.4918,80.5644,279.5502,0.0012068,0.00018984,0.0,0 STARLINK-3128,1 49441U 21104AK  23312.55733764  .00018984  00000-0  12068-2 0  9990,2 49441  53.2162  74.4918 0001357  80.5644 279.5502 15.08865554110277,6917.802,95.436,540.606,538.729,0.0
49441.0,STARLINK-3128,PAYLOAD,2023-11-08 14:57:56,15.08871612,0.0001388,53.2164,74.1947,78.3988,281.7159,0.0014722,0.0002324,0.0,0 STARLINK-3128,1 49441U 21104AK  23312.62357615  .00023240  00000-0  14722-2 0  9995,2 49441  53.2164  74.1947 0001388  78.3988 281.7159 15.08871612111364,6917.784,95.436,540.609,538.689,0.0
49441.0,STARLINK-3128,PAYLOAD,2023-11-09 11:37:57,15.08851043,0.0001268,53.2171,70.3287,84.0723,276.0413,0.0008159,0.00012725,0.0,0 STARLINK-3128,1 49441U 21104AK  23313.48469097  .00012725  00000-0  81590-3 0  9992,2 49441  53.2171  70.3287 0001268  84.0723 276.0413 15.08851043111495,6917.847,95.437,540.589,538.834,0.0
49441.0,STARLINK-3128,PAYLOAD,2023-11-09 13:13:20,15.08858198,0.0001351,53.2167,70.0286,101.8863,258.228,0.00013484,1.86e-05,0.0,0 STARLINK-3128,1 49441U 21104AK  23313.55092843  .00001860  00000-0  13484-3 0  9996,2 49441  53.2167  70.0286 0001351 101.8863 258.2280 15.08858198110426,6917.825,95.436,540.624,538.755,0.0
49441.0,STARLINK-3128,PAYLOAD,2023-11-09 14:48:43,15.08854626,0.0001292,53.2173,69.7321,92.6729,267.4411,0.00025747,3.814e-05,0.0,0 STARLINK-3128,1 49441U 21104AK  23313.61716919  .00003814  00000-0  25747-3 0  9996,2 49441  53.2173  69.7321 0001292  92.6729 267.4411 15.08854626110431,6917.836,95.437,540.594,538.807,0.0
49441.0,STARLINK-3128,PAYLOAD,2023-11-10 00:21:02,15.08854125,0.0001328,53.2177,67.9474,80.8239,279.2904,0.00021073,3.069e-05,0.0,0 STARLINK-3128,1 49441U 21104AK  23314.01460724  .00003069  00000-0  21073-3 0  9991,2 49441  53.2177  67.9474 0001328  80.8239 279.2904 15.08854125111577,6917.837,95.437,540.621,538.784,0.0
49441.0,STARLINK-3128,PAYLOAD,2023-11-10 11:28:44,15.08841093,0.000196,53.2186,65.8712,93.4806,266.641,0.00062745,9.712e-05,0.0,0 STARLINK-3128,1 49441U 21104AK  23314.47829397  .00009712  00000-0  62745-3 0  9998,2 49441  53.2186  65.8712 0001960  93.4806 266.6410 15.08841093111641,6917.877,95.437,541.098,538.386,0.0
49441.0,STARLINK-3128,PAYLOAD,2023-11-10 14:39:30,15.08851862,0.0001547,53.2177,65.2761,77.1091,283.0074,0.0001441,2.007e-05,0.0,0 STARLINK-3128,1 49441U 21104AK  23314.61076611  .00002007  00000-0  14410-3 0  9993,2 49441  53.2177  65.2761 0001547  77.1091 283.0074 15.08851862110581,6917.844,95.437,540.779,538.639,0.0
49441.0,STARLINK-3128,PAYLOAD,2023-11-11 11:19:31,15.08842852,0.0001654,53.2183,61.4124,95.6535,264.4645,-1.5917e-05,-5.41e-06,0.0,0 STARLINK-3128,1 49441U 21104AK  23315.47188930 -.00000541  00000-0 -15917-4 0  9993,2 49441  53.2183  61.4124 0001654  95.6535 264.4645 15.08842852111796,6917.872,95.437,540.881,538.592,0.0
49441.0,STARLINK-3128,PAYLOAD,2023-11-11 14:30:17,15.08842941,0.0001629,53.2186,60.8176,100.1962,259.9214,9.2508e-05,1.185e-05,0.0,0 STARLINK-3128,1 49441U 21104AK  23315.60436925  .00001185  00000-0  92508-4 0  9992,2 49441  53.2186  60.8176 0001629 100.1962 259.9214 15.08842941110730,6917.871,95.437,540.863,538.609,0.0
49441.0,STARLINK-3128,PAYLOAD,2023-11-11 16:05:40,15.08846336,0.0001573,53.2186,60.519,92.6276,267.4897,0.00015993,2.259e-05,0.0,0 STARLINK-3128,1 49441U 21104AK  23315.67060796  .00002259  00000-0  15993-3 0  9993,2 49441  53.2186  60.5190 0001573  92.6276 267.4897 15.08846336110748,6917.861,95.437,540.814,538.638,0.0
49441.0,STARLINK-3128,PAYLOAD,2023-11-12 12:45:41,15.08842282,0.0001555,53.2182,56.6522,89.8623,270.2548,7.0712e-05,8.38e-06,0.0,0 STARLINK-3128,1 49441U 21104AK  23316.53173125  .00000838  00000-0  70712-4 0  9992,2 49441  53.2182  56.6522 0001555  89.8623 270.2548 15.08842282110878,6917.873,95.437,540.814,538.663,0.0
